OBJECT_NAME,OBJECT_ID,EPOCH,MEAN_MOTION,ECCENTRICITY,INCLINATION,RA_OF_ASC_NODE,ARG_OF_PERICENTER,MEAN_ANOMALY,EPHEMERIS_TYPE,CLASSIFICATION_TYPE,NORAD_CAT_ID,ELEMENT_SET_NO,REV_AT_EPOCH,BSTAR,MEAN_MOTION_DOT,MEAN_MOTION_DDOT
ONEWEB-0063,2020-020AA,2026-06-10T03:42:42.516000,13.11417199,.0002116,87.8900,22.4678,87.1592,272.9779,0,U,45448,999,30177,.76202E-3,.283E-5,0
ONEWEB-0019,2020-020AB,2026-06-10T08:18:11.514240,13.11419127,.0001683,87.8895,22.4169,87.4534,272.6786,0,U,45449,999,30164,-.78247E-3,-.265E-5,0
ONEWEB-0094,2020-020AC,2026-06-10T12:29:34.878912,13.17648434,.000166,87.9144,7.1749,83.3589,276.7732,0,U,45450,999,30543,-.6302E-3,-.232E-5,0
ONEWEB-0087,2020-020AD,2026-06-10T07:36:41.410080,13.11414927,.0001764,87.8910,22.4090,74.4967,285.6356,0,U,45451,999,30168,-.34641E-3,-.11E-5,0
ONEWEB-0082,2020-020AE,2026-06-10T03:52:05.500992,13.11415865,.0002013,87.8900,22.4572,71.0346,289.1000,0,U,45452,999,30175,-.10271E-3,-.24E-6,0
ONEWEB-0050,2020-020AF,2026-06-10T05:26:31.320960,14.90353100,.0004198,88.9297,234.1553,42.8992,317.2564,0,U,45453,999,33934,.21484E-3,.211E-4,0
ONEWEB-0034,2020-020AG,2026-06-10T08:25:50.795040,13.11308399,.0001275,87.8926,22.4279,81.6488,278.4785,0,U,45454,999,30169,.51042E-1,.1811E-3,0
ONEWEB-0060,2020-020AH,2026-06-10T03:41:17.208960,13.11416049,.0001617,87.8892,22.4665,50.1609,309.9661,0,U,45455,999,30162,.91303E-3,.336E-5,0
ONEWEB-0086,2020-020AJ,2026-06-10T08:40:10.448256,13.11430791,.0001141,87.8902,22.4203,68.1082,292.0167,0,U,45456,999,30171,-.62696E-2,-.2209E-4,0
ONEWEB-0088,2020-020AK,2026-06-10T08:08:37.421664,13.11418713,.0002212,87.8911,22.3971,81.8085,278.3294,0,U,45457,999,30164,-.12698E-2,-.437E-5,0
ONEWEB-0102,2020-100A,2026-06-10T12:01:54.522336,13.12445457,.0001537,87.8938,352.0057,94.0472,266.0832,0,U,47258,999,26385,.30147E-3,.121E-5,0
ONEWEB-0109,2020-100B,2026-06-10T12:14:06.904896,13.12444518,.0001759,87.8948,351.9868,94.3012,265.8317,0,U,47259,999,26368,.10314E-2,.384E-5,0
ONEWEB-0110,2020-100C,2026-06-10T05:34:00.932736,13.12442825,.0001552,87.8948,352.0261,84.8193,275.3112,0,U,47260,999,26381,-.17002E-3,-.48E-6,0
ONEWEB-0111,2020-100D,2026-06-10T11:47:15.367776,13.12442658,.0001798,87.8946,351.9935,86.5886,273.5448,0,U,47261,999,26368,-.10314E-2,-.358E-5,0
ONEWEB-0114,2020-100E,2026-06-10T12:31:11.494848,13.12443463,.0001954,87.8949,351.9846,96.4356,263.6995,0,U,47262,999,26364,.11241E-2,.417E-5,0
ONEWEB-0117,2020-100F,2026-06-10T12:18:59.967648,13.12443426,.0001769,87.8948,351.9776,89.1337,270.9994,0,U,47263,999,26365,.12918E-2,.477E-5,0
ONEWEB-0118,2020-100G,2026-06-10T05:48:38.888928,13.12442200,.0002105,87.8948,352.0338,93.0030,267.1339,0,U,47264,999,26381,-.10393E-2,-.361E-5,0
ONEWEB-0119,2020-100H,2026-06-10T11:54:35.910144,13.12444060,.0001824,87.8937,352.0009,90.1239,270.0098,0,U,47265,999,26382,-.1204E-3,-.31E-6,0
ONEWEB-0120,2020-100J,2026-06-10T12:28:57.687168,13.12443464,.0001789,87.8938,351.9972,95.5195,264.6137,0,U,47266,999,26385,.12829E-2,.474E-5,0
ONEWEB-0121,2020-100K,2026-06-10T12:11:40.665120,13.12444380,.0001808,87.8948,351.9851,79.1697,280.9635,0,U,47267,999,26376,.10032E-2,.374E-5,0
ONEWEB-0122,2020-100L,2026-06-10T12:03:08.860032,13.12443956,.0001697,87.8949,351.9906,93.4195,266.7128,0,U,47268,999,26367,.4578E-3,.177E-5,0
ONEWEB-0123,2020-100M,2026-06-10T11:57:02.299392,13.12444846,.0001915,87.8938,351.9996,90.1235,270.0113,0,U,47269,999,26381,.18532E-5,.13E-6,0
ONEWEB-0124,2020-100N,2026-06-10T11:42:23.666688,13.12444547,.0001824,87.8935,352.0048,86.1103,274.0234,0,U,47270,999,26369,-.84597E-3,-.292E-5,0
ONEWEB-0125,2020-100P,2026-06-10T05:41:19.773888,13.12443384,.0002033,87.8948,352.0368,82.5091,277.6269,0,U,47271,999,26372,-.67971E-3,-.232E-5,0
ONEWEB-0126,2020-100Q,2026-06-10T11:40:09.613632,13.12443148,.0001842,87.8941,352.0038,93.6824,266.4515,0,U,47272,999,26382,-.95046E-3,-.329E-5,0
ONEWEB-0127,2020-100R,2026-06-10T12:40:56.781408,13.12443078,.0001777,87.8935,351.9943,93.9091,266.2241,0,U,47273,999,26385,.9819E-3,.366E-5,0
ONEWEB-0128,2020-100S,2026-06-10T02:13:57.533664,13.12442628,.0001539,87.8937,352.0948,83.4928,276.6376,0,U,47274,999,26381,-.12305E-2,-.43E-5,0
ONEWEB-0129,2020-100T,2026-06-10T12:43:23.399616,13.12441909,.0002123,87.8947,351.9809,122.0050,238.1285,0,U,47275,999,26380,.65063E-3,.247E-5,0
ONEWEB-0130,2020-100U,2026-06-10T11:32:38.178816,13.12443557,.0001718,87.8953,351.9864,91.7030,268.4296,0,U,47276,999,26376,-.11084E-2,-.386E-5,0
ONEWEB-0131,2020-100V,2026-06-10T11:27:44.743680,13.12443570,.0001759,87.8936,352.0054,89.6177,270.5153,0,U,47277,999,26380,-.10996E-2,-.383E-5,0
