ONEWEB-0063             
1 45448U 20020AA  26161.15465875  .00000283  00000+0  76202-3 0  9998
2 45448  87.8900  22.4678 0002116  87.1592 272.9779 13.11417199301778
ONEWEB-0019             
1 45449U 20020AB  26161.34596660 -.00000265  00000+0 -78247-3 0  9990
2 45449  87.8895  22.4169 0001683  87.4534 272.6786 13.11419127301648
ONEWEB-0094             
1 45450U 20020AC  26161.52054258 -.00000232  00000+0 -63020-3 0  9991
2 45450  87.9144   7.1749 0001660  83.3589 276.7732 13.17648434305430
ONEWEB-0087             
1 45451U 20020AD  26161.31714595 -.00000110  00000+0 -34641-3 0  9998
2 45451  87.8910  22.4090 0001764  74.4967 285.6356 13.11414927301682
ONEWEB-0082             
1 45452U 20020AE  26161.16117478 -.00000024  00000+0 -10271-3 0  9996
2 45452  87.8900  22.4572 0002013  71.0346 289.1000 13.11415865301754
ONEWEB-0050             
1 45453U 20020AF  26161.22675140  .00002110  00000+0  21484-3 0  9993
2 45453  88.9297 234.1553 0004198  42.8992 317.2564 14.90353100339341
ONEWEB-0034             
1 45454U 20020AG  26161.35128235  .00018110  00000+0  51042-1 0  9994
2 45454  87.8926  22.4279 0001275  81.6488 278.4785 13.11308399301698
ONEWEB-0060             
1 45455U 20020AH  26161.15367140  .00000336  00000+0  91303-3 0  9990
2 45455  87.8892  22.4665 0001617  50.1609 309.9661 13.11416049301624
ONEWEB-0086             
1 45456U 20020AJ  26161.36123204 -.00002209  00000+0 -62696-2 0  9990
2 45456  87.8902  22.4203 0001141  68.1082 292.0167 13.11430791301714
ONEWEB-0088             
1 45457U 20020AK  26161.33932201 -.00000437  00000+0 -12698-2 0  9991
2 45457  87.8911  22.3971 0002212  81.8085 278.3294 13.11418713301641
ONEWEB-0102             
1 47258U 20100A   26161.50132549  .00000121  00000+0  30147-3 0  9995
2 47258  87.8938 352.0057 0001537  94.0472 266.0832 13.12445457263852
ONEWEB-0109             
1 47259U 20100B   26161.50980214  .00000384  00000+0  10314-2 0  9990
2 47259  87.8948 351.9868 0001759  94.3012 265.8317 13.12444518263684
ONEWEB-0110             
1 47260U 20100C   26161.23195524 -.00000048  00000+0 -17002-3 0  9995
2 47260  87.8948 352.0261 0001552  84.8193 275.3112 13.12442825263813
ONEWEB-0111             
1 47261U 20100D   26161.49115009 -.00000358  00000+0 -10314-2 0  9996
2 47261  87.8946 351.9935 0001798  86.5886 273.5448 13.12442658263689
ONEWEB-0114             
1 47262U 20100E   26161.52166082  .00000417  00000+0  11241-2 0  9992
2 47262  87.8949 351.9846 0001954  96.4356 263.6995 13.12443463263648
ONEWEB-0117             
1 47263U 20100F   26161.51319407  .00000477  00000+0  12918-2 0  9991
2 47263  87.8948 351.9776 0001769  89.1337 270.9994 13.12443426263652
ONEWEB-0118             
1 47264U 20100G   26161.24211677 -.00000361  00000+0 -10393-2 0  9991
2 47264  87.8948 352.0338 0002105  93.0030 267.1339 13.12442200263816
ONEWEB-0119             
1 47265U 20100H   26161.49624896 -.00000031  00000+0 -12040-3 0  9996
2 47265  87.8937 352.0009 0001824  90.1239 270.0098 13.12444060263828
ONEWEB-0120             
1 47266U 20100J   26161.52011212  .00000474  00000+0  12829-2 0  9996
2 47266  87.8938 351.9972 0001789  95.5195 264.6137 13.12443464263850
ONEWEB-0121             
1 47267U 20100K   26161.50810955  .00000374  00000+0  10032-2 0  9999
2 47267  87.8948 351.9851 0001808  79.1697 280.9635 13.12444380263767
ONEWEB-0122             
1 47268U 20100L   26161.50218588  .00000177  00000+0  45780-3 0  9994
2 47268  87.8949 351.9906 0001697  93.4195 266.7128 13.12443956263675
ONEWEB-0123             
1 47269U 20100M   26161.49794328  .00000013  00000+0  18532-5 0  9990
2 47269  87.8938 351.9996 0001915  90.1235 270.0113 13.12444846263812
ONEWEB-0124             
1 47270U 20100N   26161.48777392 -.00000292  00000+0 -84597-3 0  9996
2 47270  87.8935 352.0048 0001824  86.1103 274.0234 13.12444547263691
ONEWEB-0125             
1 47271U 20100P   26161.23703442 -.00000232  00000+0 -67971-3 0  9996
2 47271  87.8948 352.0368 0002033  82.5091 277.6269 13.12443384263729
ONEWEB-0126             
1 47272U 20100Q   26161.48622238 -.00000329  00000+0 -95046-3 0  9998
2 47272  87.8941 352.0038 0001842  93.6824 266.4515 13.12443148263820
ONEWEB-0127             
1 47273U 20100R   26161.52843497  .00000366  00000+0  98190-3 0  9998
2 47273  87.8935 351.9943 0001777  93.9091 266.2241 13.12443078263852
ONEWEB-0128             
1 47274U 20100S   26161.09302701 -.00000430  00000+0 -12305-2 0  9996
2 47274  87.8937 352.0948 0001539  83.4928 276.6376 13.12442628263811
ONEWEB-0129             
1 47275U 20100T   26161.53013194  .00000247  00000+0  65063-3 0  9995
2 47275  87.8947 351.9809 0002123 122.0050 238.1285 13.12441909263805
ONEWEB-0130             
1 47276U 20100U   26161.48099744 -.00000386  00000+0 -11084-2 0  9994
2 47276  87.8953 351.9864 0001718  91.7030 268.4296 13.12443557263767
ONEWEB-0131             
1 47277U 20100V   26161.47760120 -.00000383  00000+0 -10996-2 0  9995
2 47277  87.8936 352.0054 0001759  89.6177 270.5153 13.12443570263801
